
 1 90010U SGP4-VAL 93051.38558242 +.01672663  94000-5  22520-2 0 0035                                                                                                                                                                                                                                                                                                                                                                                                                                                           
 2 90010  28.5474 124.9279 0081002 156.8669 205.7976 16.0204499601011                                                                                                                                                                                                                                                                                                                                                                                                                                                           

         0.0000000       16.0047048        0.0081002       28.5474000      124.9279000      156.8669000      205.7976000
      2700.0000000       16.0833926        0.0062728       28.5474000      110.6064744      180.0326716      246.0680892
      5400.0000000       16.1625970        0.0044455       28.5474000       96.1230003      203.1984432      339.2793912
      8100.0000000       16.2423224        0.0026181       28.5474000       81.4774776      226.3642148      125.4315062
     10800.0000000       16.3225730        0.0007908       28.5474000       66.6699063      249.5299864      324.5244341
Sgp4Update: Eccentricity is negative, e = -0.1037E-02. SatNum:     90010-Mse:    13500.00                                      


 1 90011U SGP4-VAL 93051.38558242 +.00168784  00000 0  70845-3 0 0046                                                                                                                                                                                                                                                                                                                                                                                                                                                           
 2 90011  63.9975   6.4831 7509563 239.3244 315.9903  2.0525984300303                                                                                                                                                                                                                                                                                                                                                                                                                                                           

         0.0000000        2.0527442        0.7509563       63.9975000        6.4831000      239.3244000      315.9903000
      2700.0000000        2.0591660        0.7503757       63.9929579        6.1630629      239.3157739      263.6565358
      5400.0000000        2.0655790        0.7497951       63.9884157        5.8420522      239.3071479      215.6390190
      8100.0000000        2.0719819        0.7492145       63.9838736        5.5200678      239.2985218      171.9127473
     10800.0000000        2.0783845        0.7486340       63.9793314        5.1971097      239.2898958      132.4559225
     13500.0000000        2.0848034        0.7480534       63.9747893        4.8731779      239.2812697       97.2559140
     16200.0000000        2.0912565        0.7474728       63.9702471        4.5482725      239.2726437       66.3118928
     18900.0000000        2.0977599        0.7468922       63.9657050        4.2223934      239.2640176       39.6343830
     21600.0000000        2.1043243        0.7463116       63.9611629        3.8955406      239.2553916       17.2427480
     24300.0000000        2.1109522        0.7457310       63.9566207        3.5677142      239.2467655      359.1606711
     27000.0000000        2.1176358        0.7451504       63.9520786        3.2389141      239.2381395      345.4096891
     29700.0000000        2.1243574        0.7445699       63.9475364        2.9091403      239.2295134      336.0026572
     32400.0000000        2.1310952        0.7439893       63.9429943        2.5783929      239.2208874      330.9389432
     35100.0000000        2.1378307        0.7434087       63.9384521        2.2466718      239.2122613      330.2041290
     37800.0000000        2.1445556        0.7428281       63.9339100        1.9139770      239.2036353      333.7749626
     40500.0000000        2.1512739        0.7422475       63.9293679        1.5803085      239.1950092      341.6269189
     43200.0000000        2.1579994        0.7416669       63.9248257        1.2456664      239.1863832      353.7415856


 1 90012U SGP4-VAL 93051.38558242 +.00332394  00000 0  96401-4 0 0062                                                                                                                                                                                                                                                                                                                                                                                                                                                           
 2 90012  63.8220 352.9473 7190794 239.0801 307.3271  2.4861841700210                                                                                                                                                                                                                                                                                                                                                                                                                                                           

         0.0000000        2.4863764        0.7190794       63.8220000      352.9473000      239.0801000      307.3271000
      2700.0000000        2.4988860        0.7179699       63.8182030      352.5415250      239.0713059      189.7078479
      5400.0000000        2.5114797        0.7168603       63.8144060      352.1335128      239.0625119       80.5043705
      8100.0000000        2.5241581        0.7157508       63.8106091      351.7232635      239.0537178      339.7166677
     10800.0000000        2.5369220        0.7146412       63.8068121      351.3107770      239.0449237      247.3447395
     13500.0000000        2.5497721        0.7135317       63.8030151      350.8960534      239.0361296      163.3885860
     16200.0000000        2.5627092        0.7124221       63.7992181      350.4790926      239.0273356       87.8482071
     18900.0000000        2.5757339        0.7113126       63.7954211      350.0598948      239.0185415       20.7236029
     21600.0000000        2.5888471        0.7102031       63.7916242      349.6384597      239.0097474      322.0147733
     24300.0000000        2.6020493        0.7090935       63.7878272      349.2147875      239.0009534      271.7217183
     27000.0000000        2.6153416        0.7079840       63.7840302      348.7888782      238.9921593      229.8444380
     29700.0000000        2.6287245        0.7068744       63.7802332      348.3607317      238.9833652      196.3829324
     32400.0000000        2.6421989        0.7057649       63.7764362      347.9303481      238.9745712      171.3372014
     35100.0000000        2.6557655        0.7046554       63.7726393      347.4977274      238.9657771      154.7072450
     37800.0000000        2.6694251        0.7035458       63.7688423      347.0628695      238.9569830      146.4930633
     40500.0000000        2.6831786        0.7024363       63.7650453      346.6257745      238.9481889      146.6946562
     43200.0000000        2.6970268        0.7013267       63.7612483      346.1864423      238.9393949      155.3120238


 1 90013U SGP4-VAL 93051.92409179 +.00000011  00000 0  00000 0 0 0041                                                                                                                                                                                                                                                                                                                                                                                                                                                           
 2 90013  52.6682  23.9377 0137366 276.7208  81.7737  6.4729361700921                                                                                                                                                                                                                                                                                                                                                                                                                                                           

